ISS (ZARYA)             
1 25544U 98067A   25354.60225114  .00006881  00000+0  12984-3 0  9999
2 25544  51.6321 103.5427 0003193 277.2005  82.8620 15.49685042544071
CSS (TIANHE)            
1 48274U 21035A   25354.40020681  .00017645  00000+0  21960-3 0  9999
2 48274  41.4685 330.1895 0007710  98.1704 262.0009 15.59501485265227
ISS (NAUKA)             
1 49044U 21066A   25354.60225114  .00006881  00000+0  12984-3 0  9995
2 49044  51.6321 103.5427 0003193 277.2005  82.8620 15.49685042230445
FREGAT DEB              
1 49271U 11037PF  25353.93861561  .00003390  00000+0  77751-2 0  9995
2 49271  51.6435 178.1467 0862536 239.3977 111.9064 12.34497882202827
CSS (WENTIAN)           
1 53239U 22085A   25354.40020681  .00017645  00000+0  21960-3 0  9992
2 53239  41.4685 330.1895 0007710  98.1704 262.0009 15.59501485173840
CSS (MENGTIAN)          
1 54216U 22143A   25354.40020681  .00017645  00000+0  21960-3 0  9993
2 54216  41.4685 330.1895 0007710  98.1704 262.0009 15.59501485158647
SHENZHOU-20 (SZ-20)     
1 63632U 25082A   25354.40020681  .00017645  00000+0  21960-3 0  9990
2 63632  41.4685 330.1895 0007710  98.1704 262.0009 15.59501485255300
PROGRESS-MS 31          
1 64751U 25146A   25354.60225114  .00006881  00000+0  12984-3 0  9990
2 64751  51.6321 103.5427 0003193 277.2005  82.8620 15.49685042  6752
TIANZHOU-9              
1 64786U 25149A   25354.40020681  .00017645  00000+0  21960-3 0  9995
2 64786  41.4685 330.1895 0007710  98.1704 262.0009 15.59501485255301
CREW DRAGON 11          
1 65077U 25166A   25354.60225114  .00006881  00000+0  12984-3 0  9994
2 65077  51.6321 103.5427 0003193 277.2005  82.8620 15.49685042  2143
DRAGON CRS-33           
1 65304U 25186A   25354.60225114  .00006881  00000+0  12984-3 0  9999
2 65304  51.6321 103.5427 0003193 277.2005  82.8620 15.49685042   111
PROGRESS-MS 32          
1 65586U 25204A   25354.60225114  .00006881  00000+0  12984-3 0  9992
2 65586  51.6321 103.5427 0003193 277.2005  82.8620 15.49685042   270
