CCSDS_OMM_VERS = 2.0
CREATION_DATE  = 
ORIGINATOR     = 

OBJECT_NAME    = ISS (ZARYA)
OBJECT_ID      = 1998-067A
CENTER_NAME    = EARTH
REF_FRAME      = TEME
TIME_SYSTEM    = UTC
MEAN_ELEMENT_THEORY = SGP/SGP4

EPOCH          = 2025-12-20T14:27:14.498496
MEAN_MOTION    = 15.49685042
ECCENTRICITY   = .00031934
INCLINATION    = 51.6321
RA_OF_ASC_NODE = 103.5427
ARG_OF_PERICENTER = 277.2005
MEAN_ANOMALY   = 82.8620

EPHEMERIS_TYPE = 0
CLASSIFICATION_TYPE = U
NORAD_CAT_ID   = 25544
ELEMENT_SET_NO = 999
REV_AT_EPOCH   = 54407
BSTAR          = .12983891E-3
MEAN_MOTION_DOT = .6881E-4
MEAN_MOTION_DDOT = 0

CCSDS_OMM_VERS = 2.0
CREATION_DATE  = 
ORIGINATOR     = 

OBJECT_NAME    = CSS (TIANHE)
OBJECT_ID      = 2021-035A
CENTER_NAME    = EARTH
REF_FRAME      = TEME
TIME_SYSTEM    = UTC
MEAN_ELEMENT_THEORY = SGP/SGP4

EPOCH          = 2025-12-20T09:36:17.868384
MEAN_MOTION    = 15.59501485
ECCENTRICITY   = .00077102
INCLINATION    = 41.4685
RA_OF_ASC_NODE = 330.1895
ARG_OF_PERICENTER = 98.1704
MEAN_ANOMALY   = 262.0009

EPHEMERIS_TYPE = 0
CLASSIFICATION_TYPE = U
NORAD_CAT_ID   = 48274
ELEMENT_SET_NO = 999
REV_AT_EPOCH   = 26522
BSTAR          = .21960295E-3
MEAN_MOTION_DOT = .17645E-3
MEAN_MOTION_DDOT = 0

CCSDS_OMM_VERS = 2.0
CREATION_DATE  = 
ORIGINATOR     = 

OBJECT_NAME    = ISS (NAUKA)
OBJECT_ID      = 2021-066A
CENTER_NAME    = EARTH
REF_FRAME      = TEME
TIME_SYSTEM    = UTC
MEAN_ELEMENT_THEORY = SGP/SGP4

EPOCH          = 2025-12-20T14:27:14.498496
MEAN_MOTION    = 15.49685042
ECCENTRICITY   = .00031934
INCLINATION    = 51.6321
RA_OF_ASC_NODE = 103.5427
ARG_OF_PERICENTER = 277.2005
MEAN_ANOMALY   = 82.8620

EPHEMERIS_TYPE = 0
CLASSIFICATION_TYPE = U
NORAD_CAT_ID   = 49044
ELEMENT_SET_NO = 999
REV_AT_EPOCH   = 23044
BSTAR          = .12983891E-3
MEAN_MOTION_DOT = .6881E-4
MEAN_MOTION_DDOT = 0

CCSDS_OMM_VERS = 2.0
CREATION_DATE  = 
ORIGINATOR     = 

OBJECT_NAME    = FREGAT DEB
OBJECT_ID      = 2011-037PF
CENTER_NAME    = EARTH
REF_FRAME      = TEME
TIME_SYSTEM    = UTC
MEAN_ELEMENT_THEORY = SGP/SGP4

EPOCH          = 2025-12-19T22:31:36.388704
MEAN_MOTION    = 12.34497882
ECCENTRICITY   = .0862536
INCLINATION    = 51.6435
RA_OF_ASC_NODE = 178.1467
ARG_OF_PERICENTER = 239.3977
MEAN_ANOMALY   = 111.9064

EPHEMERIS_TYPE = 0
CLASSIFICATION_TYPE = U
NORAD_CAT_ID   = 49271
ELEMENT_SET_NO = 999
REV_AT_EPOCH   = 20282
BSTAR          = .77751E-2
MEAN_MOTION_DOT = .339E-4
MEAN_MOTION_DDOT = 0

CCSDS_OMM_VERS = 2.0
CREATION_DATE  = 
ORIGINATOR     = 

OBJECT_NAME    = CSS (WENTIAN)
OBJECT_ID      = 2022-085A
CENTER_NAME    = EARTH
REF_FRAME      = TEME
TIME_SYSTEM    = UTC
MEAN_ELEMENT_THEORY = SGP/SGP4

EPOCH          = 2025-12-20T09:36:17.868384
MEAN_MOTION    = 15.59501485
ECCENTRICITY   = .00077102
INCLINATION    = 41.4685
RA_OF_ASC_NODE = 330.1895
ARG_OF_PERICENTER = 98.1704
MEAN_ANOMALY   = 262.0009

EPHEMERIS_TYPE = 0
CLASSIFICATION_TYPE = U
NORAD_CAT_ID   = 53239
ELEMENT_SET_NO = 999
REV_AT_EPOCH   = 17384
BSTAR          = .21960295E-3
MEAN_MOTION_DOT = .17645E-3
MEAN_MOTION_DDOT = 0

CCSDS_OMM_VERS = 2.0
CREATION_DATE  = 
ORIGINATOR     = 

OBJECT_NAME    = CSS (MENGTIAN)
OBJECT_ID      = 2022-143A
CENTER_NAME    = EARTH
REF_FRAME      = TEME
TIME_SYSTEM    = UTC
MEAN_ELEMENT_THEORY = SGP/SGP4

EPOCH          = 2025-12-20T09:36:17.868384
MEAN_MOTION    = 15.59501485
ECCENTRICITY   = .00077102
INCLINATION    = 41.4685
RA_OF_ASC_NODE = 330.1895
ARG_OF_PERICENTER = 98.1704
MEAN_ANOMALY   = 262.0009

EPHEMERIS_TYPE = 0
CLASSIFICATION_TYPE = U
NORAD_CAT_ID   = 54216
ELEMENT_SET_NO = 999
REV_AT_EPOCH   = 15864
BSTAR          = .21960295E-3
MEAN_MOTION_DOT = .17645E-3
MEAN_MOTION_DDOT = 0

CCSDS_OMM_VERS = 2.0
CREATION_DATE  = 
ORIGINATOR     = 

OBJECT_NAME    = SHENZHOU-20 (SZ-20)
OBJECT_ID      = 2025-082A
CENTER_NAME    = EARTH
REF_FRAME      = TEME
TIME_SYSTEM    = UTC
MEAN_ELEMENT_THEORY = SGP/SGP4

EPOCH          = 2025-12-20T09:36:17.868384
MEAN_MOTION    = 15.59501485
ECCENTRICITY   = .00077102
INCLINATION    = 41.4685
RA_OF_ASC_NODE = 330.1895
ARG_OF_PERICENTER = 98.1704
MEAN_ANOMALY   = 262.0009

EPHEMERIS_TYPE = 0
CLASSIFICATION_TYPE = U
NORAD_CAT_ID   = 63632
ELEMENT_SET_NO = 999
REV_AT_EPOCH   = 25530
BSTAR          = .21960295E-3
MEAN_MOTION_DOT = .17645E-3
MEAN_MOTION_DDOT = 0

CCSDS_OMM_VERS = 2.0
CREATION_DATE  = 
ORIGINATOR     = 

OBJECT_NAME    = PROGRESS-MS 31
OBJECT_ID      = 2025-146A
CENTER_NAME    = EARTH
REF_FRAME      = TEME
TIME_SYSTEM    = UTC
MEAN_ELEMENT_THEORY = SGP/SGP4

EPOCH          = 2025-12-20T14:27:14.498496
MEAN_MOTION    = 15.49685042
ECCENTRICITY   = .00031934
INCLINATION    = 51.6321
RA_OF_ASC_NODE = 103.5427
ARG_OF_PERICENTER = 277.2005
MEAN_ANOMALY   = 82.8620

EPHEMERIS_TYPE = 0
CLASSIFICATION_TYPE = U
NORAD_CAT_ID   = 64751
ELEMENT_SET_NO = 999
REV_AT_EPOCH   = 675
BSTAR          = .12983891E-3
MEAN_MOTION_DOT = .6881E-4
MEAN_MOTION_DDOT = 0

CCSDS_OMM_VERS = 2.0
CREATION_DATE  = 
ORIGINATOR     = 

OBJECT_NAME    = TIANZHOU-9
OBJECT_ID      = 2025-149A
CENTER_NAME    = EARTH
REF_FRAME      = TEME
TIME_SYSTEM    = UTC
MEAN_ELEMENT_THEORY = SGP/SGP4

EPOCH          = 2025-12-20T09:36:17.868384
MEAN_MOTION    = 15.59501485
ECCENTRICITY   = .00077102
INCLINATION    = 41.4685
RA_OF_ASC_NODE = 330.1895
ARG_OF_PERICENTER = 98.1704
MEAN_ANOMALY   = 262.0009

EPHEMERIS_TYPE = 0
CLASSIFICATION_TYPE = U
NORAD_CAT_ID   = 64786
ELEMENT_SET_NO = 999
REV_AT_EPOCH   = 25530
BSTAR          = .21960295E-3
MEAN_MOTION_DOT = .17645E-3
MEAN_MOTION_DDOT = 0

CCSDS_OMM_VERS = 2.0
CREATION_DATE  = 
ORIGINATOR     = 

OBJECT_NAME    = CREW DRAGON 11
OBJECT_ID      = 2025-166A
CENTER_NAME    = EARTH
REF_FRAME      = TEME
TIME_SYSTEM    = UTC
MEAN_ELEMENT_THEORY = SGP/SGP4

EPOCH          = 2025-12-20T14:27:14.498496
MEAN_MOTION    = 15.49685042
ECCENTRICITY   = .00031934
INCLINATION    = 51.6321
RA_OF_ASC_NODE = 103.5427
ARG_OF_PERICENTER = 277.2005
MEAN_ANOMALY   = 82.8620

EPHEMERIS_TYPE = 0
CLASSIFICATION_TYPE = U
NORAD_CAT_ID   = 65077
ELEMENT_SET_NO = 999
REV_AT_EPOCH   = 214
BSTAR          = .12983891E-3
MEAN_MOTION_DOT = .6881E-4
MEAN_MOTION_DDOT = 0

CCSDS_OMM_VERS = 2.0
CREATION_DATE  = 
ORIGINATOR     = 

OBJECT_NAME    = DRAGON CRS-33
OBJECT_ID      = 2025-186A
CENTER_NAME    = EARTH
REF_FRAME      = TEME
TIME_SYSTEM    = UTC
MEAN_ELEMENT_THEORY = SGP/SGP4

EPOCH          = 2025-12-20T14:27:14.498496
MEAN_MOTION    = 15.49685042
ECCENTRICITY   = .00031934
INCLINATION    = 51.6321
RA_OF_ASC_NODE = 103.5427
ARG_OF_PERICENTER = 277.2005
MEAN_ANOMALY   = 82.8620

EPHEMERIS_TYPE = 0
CLASSIFICATION_TYPE = U
NORAD_CAT_ID   = 65304
ELEMENT_SET_NO = 999
REV_AT_EPOCH   = 11
BSTAR          = .12983891E-3
MEAN_MOTION_DOT = .6881E-4
MEAN_MOTION_DDOT = 0

CCSDS_OMM_VERS = 2.0
CREATION_DATE  = 
ORIGINATOR     = 

OBJECT_NAME    = PROGRESS-MS 32
OBJECT_ID      = 2025-204A
CENTER_NAME    = EARTH
REF_FRAME      = TEME
TIME_SYSTEM    = UTC
MEAN_ELEMENT_THEORY = SGP/SGP4

EPOCH          = 2025-12-20T14:27:14.498496
MEAN_MOTION    = 15.49685042
ECCENTRICITY   = .00031934
INCLINATION    = 51.6321
RA_OF_ASC_NODE = 103.5427
ARG_OF_PERICENTER = 277.2005
MEAN_ANOMALY   = 82.8620

EPHEMERIS_TYPE = 0
CLASSIFICATION_TYPE = U
NORAD_CAT_ID   = 65586
ELEMENT_SET_NO = 999
REV_AT_EPOCH   = 27
BSTAR          = .12983891E-3
MEAN_MOTION_DOT = .6881E-4
MEAN_MOTION_DDOT = 0

